[
    {
        "idstation": "N8",
        "name_th": "หมอชิต",
        "name_en": "Mo Chit",
        "location": "บริเวณหน้าสวนจตุจักร เป็นจุดเชื่อมต่อการเดินทางที่สำคัญของกรุงเทพฯ",
        "id_btsline": "2",
        "btsline": "เส้นทางรถไฟฟ้าบีทีเอส สายสุขุมวิท (สีเขียวอ่อน)",
        "dcode": "1030",
        "dname": "เขตจตุจักร",
        "station_co": "สถานีเชื่อมต่อเส้นทางรถไฟฟ้ามหานคร สายสีน้ำเงิน สถานี BL13",
        "lat": "13.80262297",
        "lng": "100.5538124",
        "type": "BTS"
    },
    {
        "idstation": "N7",
        "name_th": "สะพานควาย",
        "name_en": "Saphan Khwai",
        "location": "โรงพยาบาลเปาโล-ที่ทำการไปรษณีย์สามเสน",
        "id_btsline": "2",
        "btsline": "เส้นทางรถไฟฟ้าบีทีเอส สายสุขุมวิท (สีเขียวอ่อน)",
        "dcode": "1014",
        "dname": "เขตพญาไท",
        "station_co": "",
        "lat": "13.79386254",
        "lng": "100.5497496",
        "type": "BTS"
    },
    {
        "idstation": "N5",
        "name_th": "อารีย์",
        "name_en": "Ari",
        "location": "บริเวณสามแยกซอยพหลโยธิน 7 (อารีย์)",
        "id_btsline": "2",
        "btsline": "เส้นทางรถไฟฟ้าบีทีเอส สายสุขุมวิท (สีเขียวอ่อน)",
        "dcode": "1014",
        "dname": "เขตพญาไท",
        "station_co": "",
        "lat": "13.77954984",
        "lng": "100.5445779",
        "type": "BTS"
    },
    {
        "idstation": "N4",
        "name_th": "สนามเป้า",
        "name_en": "Sanam Pao",
        "location": "บริเวณด้านหน้ากองพลทหารม้าที่ 2 รักษาพระองค์ ด้านทิศใต้ของซอยพหลโยธิน 3",
        "id_btsline": "2",
        "btsline": "เส้นทางรถไฟฟ้าบีทีเอส สายสุขุมวิท (สีเขียวอ่อน)",
        "dcode": "1014",
        "dname": "เขตพญาไท",
        "station_co": "",
        "lat": "13.77255111",
        "lng": "100.542072",
        "type": "BTS"
    },
    {
        "idstation": "N3",
        "name_th": "อนุสาวรีย์ชัยสมรภูมิ",
        "name_en": "Victory Monument",
        "location": "บริเวณทิศใต้ของอนุสาวรีย์ชัยสมรภูมิ",
        "id_btsline": "2",
        "btsline": "เส้นทางรถไฟฟ้าบีทีเอส สายสุขุมวิท (สีเขียวอ่อน)",
        "dcode": "1037",
        "dname": "เขตราชเทวี",
        "station_co": "",
        "lat": "13.76270271",
        "lng": "100.5370322",
        "type": "BTS"
    },
    {
        "idstation": "N2",
        "name_th": "พญาไท",
        "name_en": "Phaya Thai",
        "location": "ด้านทิศใต้ของทางแยกพญาไท (จุดบรรจบถนนพญาไทและถนนศรีอยุธยา)",
        "id_btsline": "2",
        "btsline": "เส้นทางรถไฟฟ้าบีทีเอส สายสุขุมวิท (สีเขียวอ่อน)",
        "dcode": "1037",
        "dname": "เขตราชเทวี",
        "station_co": "สถานีเชื่อมต่อเส้นทางรถไฟฟ้าแอร์พอร์ต เรล ลิงก์ (Airport Rail Link)",
        "lat": "13.75695565",
        "lng": "100.5338228",
        "type": "BTS"
    },
    {
        "idstation": "N1",
        "name_th": "ราชเทวี",
        "name_en": "Ratchathewi",
        "location": "ถนนพญาไท ด้านทิศใต้ของทางแยกราชเทวี จุดบรรจบถนนพญาไทและถนนเพชรบุรี ใกล้สะพานหัวช้าง",
        "id_btsline": "2",
        "btsline": "เส้นทางรถไฟฟ้าบีทีเอส สายสุขุมวิท (สีเขียวอ่อน)",
        "dcode": "1037",
        "dname": "เขตราชเทวี",
        "station_co": "สถานีเชื่อมต่อเส้นทางเรือโดยสารคลองแสนแสบ  ท่าสะพานหัวช้าง",
        "lat": "13.75181733",
        "lng": "100.5315607",
        "type": "BTS"
    },
    {
        "idstation": "W1",
        "name_th": "สนามกีฬาแห่งชาติ",
        "name_en": "National Stadium",
        "location": "หน้าสนามกีฬาแห่งชาติ",
        "id_btsline": "1",
        "btsline": "เส้นทางรถไฟฟ้าบีทีเอส สายสีลม (สีเขียวเข้ม)",
        "dcode": "1007",
        "dname": "เขตปทุมวัน",
        "station_co": "",
        "lat": "13.74650803",
        "lng": "100.5291682",
        "type": "BTS"
    },
    {
        "idstation": "CEN",
        "name_th": "สยาม",
        "name_en": "Siam",
        "location": "บนถนนพระรามที่ 1 ระหว่างทางแยกปทุมวัน (จุดบรรจบถนนพระรามที่ 1 และถนนพญาไท) กับทางแยกเฉลิมเผ่า",
        "id_btsline": "1",
        "btsline": "เส้นทางรถไฟฟ้าบีทีเอส สายสีลม (สีเขียวเข้ม)",
        "dcode": "1007",
        "dname": "เขตปทุมวัน",
        "station_co": "สถานีร่วมระหว่างเส้นทางรถไฟฟ้าบีทีเอส สายสีลม (สีเขียวเข้ม)กับเส้นทางรถไฟฟ้าบีทีเอส สายสุขุมวิท",
        "lat": "13.74565407",
        "lng": "100.5342208",
        "type": "BTS"
    },
    {
        "idstation": "S1",
        "name_th": "ราชดำริ",
        "name_en": "Ratchadamri",
        "location": "ระหว่างทางแยกราชดำริซึ่งเป็นจุดบรรจบกับถนนสารสิน",
        "id_btsline": "1",
        "btsline": "เส้นทางรถไฟฟ้าบีทีเอส สายสีลม (สีเขียวเข้ม)",
        "dcode": "1007",
        "dname": "เขตปทุมวัน",
        "station_co": "",
        "lat": "13.73945669",
        "lng": "100.5394511",
        "type": "BTS"
    },
    {
        "idstation": "S2",
        "name_th": "ศาลาแดง",
        "name_en": "Sala Daeng",
        "location": "ยกระดับเหนือถนนสีลม ใจกลางย่านธุรกิจถนนสีลม ใกล้กับทางแยกศาลาแดง",
        "id_btsline": "1",
        "btsline": "เส้นทางรถไฟฟ้าบีทีเอส สายสีลม (สีเขียวเข้ม)",
        "dcode": "1004",
        "dname": "เขตบางรัก",
        "station_co": "สถานีเชื่อมต่อเส้นทางรถไฟฟ้ามหานคร สายสีน้ำเงิน สถานี BL26",
        "lat": "13.72851545",
        "lng": "100.5342387",
        "type": "BTS"
    },
    {
        "idstation": "S3",
        "name_th": "ช่องนนทรี",
        "name_en": "Chong Nonsi",
        "location": "บนถนนนราธิวาสราชนครินทร์ บริเวณซอยพิพัฒน์ 2",
        "id_btsline": "1",
        "btsline": "เส้นทางรถไฟฟ้าบีทีเอส สายสีลม (สีเขียวเข้ม)",
        "dcode": "1004",
        "dname": "เขตบางรัก",
        "station_co": "สถานีเชื่อมต่อรถโดยสารด่วนพิเศษ สายสาทร–ราชพฤกษ์ สถานีสาทร",
        "lat": "13.72385423",
        "lng": "100.5293727",
        "type": "BTS"
    },
    {
        "idstation": "S5",
        "name_th": "สุรศักดิ์",
        "name_en": "Surasak",
        "location": "หน้าสมาคมหอการค้าไทย-จีน",
        "id_btsline": "1",
        "btsline": "เส้นทางรถไฟฟ้าบีทีเอส สายสีลม (สีเขียวเข้ม)",
        "dcode": "1028",
        "dname": "เขตสาทร",
        "station_co": "",
        "lat": "13.71930141",
        "lng": "100.5215673",
        "type": "BTS"
    },
    {
        "idstation": "S6",
        "name_th": "สะพานตากสิน",
        "name_en": "Saphan Taksin",
        "location": "เชิงสะพานสมเด็จเจ้าพระยาตากสิน(สาทร)",
        "id_btsline": "1",
        "btsline": "เส้นทางรถไฟฟ้าบีทีเอส สายสีลม (สีเขียวเข้ม)",
        "dcode": "1004",
        "dname": "เขตบางรัก",
        "station_co": "สถานีเชือมต่อเส้นทางเดินเรือด่วนเจ้าพระยา  ท่าสาทร",
        "lat": "13.7188135",
        "lng": "100.5141766",
        "type": "BTS"
    },
    {
        "idstation": "E1",
        "name_th": "ชิดลม",
        "name_en": "Chit Lom",
        "location": "ด้านทิศตะวันตกของทางแยกชิดลม จุดบรรจบถนนเพลินจิต, ถนนชิดลม และถนนหลังสวน ใกล้ทางแยกราชประสงค์",
        "id_btsline": "2",
        "btsline": "เส้นทางรถไฟฟ้าบีทีเอส สายสุขุมวิท (สีเขียวอ่อน)",
        "dcode": "1007",
        "dname": "เขตปทุมวัน",
        "station_co": "",
        "lat": "13.74409858",
        "lng": "100.5430322",
        "type": "BTS"
    },
    {
        "idstation": "E2",
        "name_th": "เพลินจิต",
        "name_en": "Phloen Chit",
        "location": "ด้านทิศตะวันออกของทางแยกเพลินจิต (จุดบรรจบถนนเพลินจิตและถนนวิทยุ) ใกล้จุดตัดทางพิเศษเฉลิมมหานคร",
        "id_btsline": "2",
        "btsline": "เส้นทางรถไฟฟ้าบีทีเอส สายสุขุมวิท (สีเขียวอ่อน)",
        "dcode": "1007",
        "dname": "เขตปทุมวัน",
        "station_co": "",
        "lat": "13.74302972",
        "lng": "100.5491559",
        "type": "BTS"
    },
    {
        "idstation": "E3",
        "name_th": "นานา",
        "name_en": "Nana",
        "location": "ต้นถนนสุขุมวิท บริเวณปากซอยสุขุมวิท 6 และซอยสุขุมวิท 9",
        "id_btsline": "2",
        "btsline": "เส้นทางรถไฟฟ้าบีทีเอส สายสุขุมวิท (สีเขียวอ่อน)",
        "dcode": "1039",
        "dname": "เขตวัฒนา",
        "station_co": "",
        "lat": "13.74063159",
        "lng": "100.5553355",
        "type": "BTS"
    },
    {
        "idstation": "E4",
        "name_th": "อโศก",
        "name_en": "Asok",
        "location": "ถนนสุขุมวิท ปากซอยสุขุมวิท 14 และซอยสุขุมวิท 19 ด้านทิศตะวันตกของทางแยกอโศกมนตรี",
        "id_btsline": "2",
        "btsline": "เส้นทางรถไฟฟ้าบีทีเอส สายสุขุมวิท (สีเขียวอ่อน)",
        "dcode": "1033",
        "dname": "เขตคลองเตย",
        "station_co": "สถานีเชื่อมต่อเส้นทางรถไฟฟ้ามหานคร สายสีน้ำเงิน สถานี BL22",
        "lat": "13.73701993",
        "lng": "100.560425",
        "type": "BTS"
    },
    {
        "idstation": "E5",
        "name_th": "พร้อมพงษ์",
        "name_en": "Phrom Phong",
        "location": "ถนนสุขุมวิท บริเวณปากซอยสุขุมวิท 24 (เกษม) และซอยสุขุมวิท 39 (พร้อมพงษ์)",
        "id_btsline": "2",
        "btsline": "เส้นทางรถไฟฟ้าบีทีเอส สายสุขุมวิท (สีเขียวอ่อน)",
        "dcode": "1039",
        "dname": "เขตวัฒนา",
        "station_co": "",
        "lat": "13.73051676",
        "lng": "100.5696098",
        "type": "BTS"
    },
    {
        "idstation": "E6",
        "name_th": "ทองหล่อ",
        "name_en": "Thong Lo",
        "location": "ถนนสุขุมวิท บริเวณปากซอยสุขุมวิท 55 (ทองหล่อ) และซอยสุขุมวิท 38 (สันติสุข)",
        "id_btsline": "2",
        "btsline": "เส้นทางรถไฟฟ้าบีทีเอส สายสุขุมวิท (สีเขียวอ่อน)",
        "dcode": "1033",
        "dname": "เขตคลองเตย",
        "station_co": "",
        "lat": "13.72429562",
        "lng": "100.5784631",
        "type": "BTS"
    },
    {
        "idstation": "E7",
        "name_th": "เอกมัย",
        "name_en": "Ekkamai",
        "location": "บริเวณปากซอยสุขุมวิท 42 ด้านทิศตะวันออกของแยกเอกมัยใต้ จุดบรรจบถนนสุขุมวิทและซอยสุขุมวิท 63",
        "id_btsline": "2",
        "btsline": "เส้นทางรถไฟฟ้าบีทีเอส สายสุขุมวิท (สีเขียวอ่อน)",
        "dcode": "1033",
        "dname": "เขตคลองเตย",
        "station_co": "",
        "lat": "13.71955261",
        "lng": "100.5851253",
        "type": "BTS"
    },
    {
        "idstation": "E8",
        "name_th": "พระโขนง",
        "name_en": "Phra Khanong",
        "location": "จุดบรรจบถนนสุขุมวิท ถนนพระรามที่ 4 ถนนสุขุมวิท 71ระหว่างซอยสุขุมวิท 44/1-46 กับซอยสุขุมวิท 67-69",
        "id_btsline": "2",
        "btsline": "เส้นทางรถไฟฟ้าบีทีเอส สายสุขุมวิท (สีเขียวอ่อน)",
        "dcode": "1039",
        "dname": "เขตวัฒนา",
        "station_co": "",
        "lat": "13.71526531",
        "lng": "100.5911801",
        "type": "BTS"
    },
    {
        "idstation": "E9",
        "name_th": "อ่อนนุช",
        "name_en": "On Nut",
        "location": "บริเวณทางแยกอ่อนนุช ระหว่างซอยสุขุมวิท 79 และซอยสุขุมวิท 81 กับซอยสุขุมวิท 50 และซอยสุขุมวิท 52",
        "id_btsline": "2",
        "btsline": "เส้นทางรถไฟฟ้าบีทีเอส สายสุขุมวิท (สีเขียวอ่อน)",
        "dcode": "1033",
        "dname": "เขตคลองเตย",
        "station_co": " ",
        "lat": "13.70562929",
        "lng": "100.6010353",
        "type": "BTS"
    },
    {
        "idstation": "S7",
        "name_th": "กรุงธนบุรี",
        "name_en": "Krung Thon Buri",
        "location": "ใกล้สะพานสมเด็จพระเจ้าตากสินและถนนเจริญกรุง",
        "id_btsline": "1",
        "btsline": "เส้นทางรถไฟฟ้าบีทีเอส สายสีลม (สีเขียวเข้ม)",
        "dcode": "1018",
        "dname": "เขตคลองสาน",
        "station_co": "สถานีเชื่อมต่อเส้นทางรถไฟฟ้า สายสีทอง สถานี G1",
        "lat": "13.72093655",
        "lng": "100.5025308",
        "type": "BTS"
    },
    {
        "idstation": "S8",
        "name_th": "วงเวียนใหญ่",
        "name_en": "Wongwian Yai",
        "location": "ใกล้วงเวียนใหญ่",
        "id_btsline": "1",
        "btsline": "เส้นทางรถไฟฟ้าบีทีเอส สายสีลม (สีเขียวเข้ม)",
        "dcode": "1018",
        "dname": "เขตคลองสาน",
        "station_co": " ",
        "lat": "13.72107132",
        "lng": "100.495218",
        "type": "BTS"
    },
    {
        "idstation": "E10",
        "name_th": "บางจาก",
        "name_en": "Bang Chak",
        "location": "บนถนนสุขุมวิท ระหว่างซอยสุขุมวิท 97 และซอยสุขุมวิท 99 กับซอยสุขุมวิท 60/2 และซอยสุขุมวิท 62",
        "id_btsline": "2",
        "btsline": "เส้นทางรถไฟฟ้าบีทีเอส สายสุขุมวิท (สีเขียวอ่อน)",
        "dcode": "1009",
        "dname": "เขตพระโขนง",
        "station_co": "",
        "lat": "13.69671589",
        "lng": "100.605357",
        "type": "BTS"
    },
    {
        "idstation": "E11",
        "name_th": "ปุณณวิถี",
        "name_en": "Punnawithi",
        "location": "นนสุขุมวิท บริเวณปากซอยสุขุมวิท 101 (ปุณณวิถี) และซอยสุขุมวิท 64",
        "id_btsline": "2",
        "btsline": "เส้นทางรถไฟฟ้าบีทีเอส สายสุขุมวิท (สีเขียวอ่อน)",
        "dcode": "1009",
        "dname": "เขตพระโขนง",
        "station_co": "",
        "lat": "13.68930755",
        "lng": "100.6089676",
        "type": "BTS"
    },
    {
        "idstation": "E12",
        "name_th": "อุดมสุข",
        "name_en": "Udom Suk",
        "location": "ถนนสุขุมวิท ระหว่างซอยสุขุมวิท 101/3 กับถนนอุดมสุข (สุขุมวิท 103)",
        "id_btsline": "2",
        "btsline": "เส้นทางรถไฟฟ้าบีทีเอส สายสุขุมวิท (สีเขียวอ่อน)",
        "dcode": "1047",
        "dname": "เขตบางนา",
        "station_co": "",
        "lat": "13.6798494",
        "lng": "100.6094764",
        "type": "BTS"
    },
    {
        "idstation": "E13",
        "name_th": "บางนา",
        "name_en": "Bang Na",
        "location": "ถนนสุขุมวิท บริเวณสะพานข้ามคลองบางนา หน้ากรมอุตุนิยมวิทยาและศูนย์แสดงสินค้าไบเทค",
        "id_btsline": "2",
        "btsline": "เส้นทางรถไฟฟ้าบีทีเอส สายสุขุมวิท (สีเขียวอ่อน)",
        "dcode": "1047",
        "dname": "เขตบางนา",
        "station_co": "",
        "lat": "13.66812092",
        "lng": "100.6046455",
        "type": "BTS"
    },
    {
        "idstation": "E14",
        "name_th": "แบริ่ง",
        "name_en": "Bearing",
        "location": "ถนนสุขุมวิท ระหว่างปากทางถนนลาซาล (สุขุมวิท 105) กับซอยสุขุมวิท 107",
        "id_btsline": "2",
        "btsline": "เส้นทางรถไฟฟ้าบีทีเอส สายสุขุมวิท (สีเขียวอ่อน)",
        "dcode": "1047",
        "dname": "เขตบางนา",
        "station_co": "",
        "lat": "13.66115213",
        "lng": "100.6017976",
        "type": "BTS"
    },
    {
        "idstation": "S9",
        "name_th": "โพธิ์นิมิตร",
        "name_en": "Pho Nimit",
        "location": "ถนนราชพฤกษ์ ใกล้สี่แยกตากสิน",
        "id_btsline": "1",
        "btsline": "เส้นทางรถไฟฟ้าบีทีเอส สายสีลม (สีเขียวเข้ม)",
        "dcode": "1015",
        "dname": "เขตธนบุรี",
        "station_co": "",
        "lat": "13.71921979",
        "lng": "100.4859694",
        "type": "BTS"
    },
    {
        "idstation": "S10",
        "name_th": "ตลาดพลู",
        "name_en": "Talat Phlu",
        "location": "ถนนริมทางรถไฟและถนนเทอดไท",
        "id_btsline": "1",
        "btsline": "เส้นทางรถไฟฟ้าบีทีเอส สายสีลม (สีเขียวเข้ม)",
        "dcode": "1015",
        "dname": "เขตธนบุรี",
        "station_co": "สถานีเชื่อมต่อรถโดยสารด่วนพิเศษ สายสาทร–ราชพฤกษ์ สถานีราชพฤกษ์",
        "lat": "13.71403433",
        "lng": "100.4763857",
        "type": "BTS"
    },
    {
        "idstation": "S11",
        "name_th": "วุฒากาศ",
        "name_en": "Wutthakat",
        "location": "บริเวณสี่แยกราชพฤกษ์-วุฒากาศ",
        "id_btsline": "1",
        "btsline": "เส้นทางรถไฟฟ้าบีทีเอส สายสีลม (สีเขียวเข้ม)",
        "dcode": "1015",
        "dname": "เขตธนบุรี",
        "station_co": "",
        "lat": "13.71222176",
        "lng": "100.4726205",
        "type": "BTS"
    },
    {
        "idstation": "S12",
        "name_th": "บางหว้า",
        "name_en": "Bang Wa",
        "location": "บริเวณด้านข้างสะพานยกระดับข้ามทางแยกต่างระดับเพชรเกษม",
        "id_btsline": "1",
        "btsline": "เส้นทางรถไฟฟ้าบีทีเอส สายสีลม (สีเขียวเข้ม)",
        "dcode": "1022",
        "dname": "เขตภาษีเจริญ",
        "station_co": "สถานีเชื่อมต่อเส้นทางรถไฟฟ้ามหานคร สายสีน้ำเงิน สถานี BL34",
        "lat": "13.72078877",
        "lng": "100.4577966",
        "type": "BTS"
    },
    {
        "idstation": "N9",
        "name_th": "ห้าแยกลาดพร้าว",
        "name_en": "Ha Yaek Lat Phrao",
        "location": "บริเวณใกล้กับจุดบรรจบถนนลาดพร้าว และถนนหอวัง ด้านหน้าศูนย์การค้าเซ็นทรัล ลาดพร้าว และโรงเรียนหอวัง",
        "id_btsline": "2",
        "btsline": "เส้นทางรถไฟฟ้าบีทีเอส สายสุขุมวิท (สีเขียวอ่อน)",
        "dcode": "1030",
        "dname": "เขตจตุจักร",
        "station_co": "สถานีเชื่อมต่อเส้นทางรถไฟฟ้ามหานคร สายสีน้ำเงิน สถานี BL14",
        "lat": "13.81668984",
        "lng": "100.5620546",
        "type": "BTS"
    },
    {
        "idstation": "N10",
        "name_th": "พหลโยธิน 24",
        "name_en": "Phahon Yothin 24",
        "location": "บริเวณจุดตัดระหว่างถนนรัชดาภิเษกและถนนพหลโยธิน (แยกรัชโยธิน)",
        "id_btsline": "2",
        "btsline": "เส้นทางรถไฟฟ้าบีทีเอส สายสุขุมวิท (สีเขียวอ่อน)",
        "dcode": "1030",
        "dname": "เขตจตุจักร",
        "station_co": "",
        "lat": "13.82413711",
        "lng": "100.566461",
        "type": "BTS"
    },
    {
        "idstation": "N11",
        "name_th": "รัชโยธิน",
        "name_en": "Ratchayothin",
        "location": "บริเวณเชิงสะพานข้ามแยกรัชโยธิน ใกล้กับโรงภาพยนตร์เมเจอร์ ซีนีเพล็กซ์ รัชโยธิน",
        "id_btsline": "2",
        "btsline": "เส้นทางรถไฟฟ้าบีทีเอส สายสุขุมวิท (สีเขียวอ่อน)",
        "dcode": "1030",
        "dname": "เขตจตุจักร",
        "station_co": "",
        "lat": "13.82975669",
        "lng": "100.5697176",
        "type": "BTS"
    },
    {
        "idstation": "N13",
        "name_th": "มหาวิทยาลัยเกษตรศาสตร์",
        "name_en": "Kasetsart University",
        "location": "บริเวณด้านหน้ามหาวิทยาลัยเกษตรศาสตร์ วิทยาเขตบางเขน",
        "id_btsline": "2",
        "btsline": "เส้นทางรถไฟฟ้าบีทีเอส สายสุขุมวิท (สีเขียวอ่อน)",
        "dcode": "1030",
        "dname": "เขตจตุจักร",
        "station_co": "",
        "lat": "13.84225543",
        "lng": "100.5771187",
        "type": "BTS"
    },
    {
        "idstation": "N12",
        "name_th": "เสนานิคม",
        "name_en": "Sena Nikhom",
        "location": "บริเวณด้านหน้ากรมพัฒนาที่ดิน",
        "id_btsline": "2",
        "btsline": "เส้นทางรถไฟฟ้าบีทีเอส สายสุขุมวิท (สีเขียวอ่อน)",
        "dcode": "1030",
        "dname": "เขตจตุจักร",
        "station_co": "",
        "lat": "13.83639349",
        "lng": "100.5736196",
        "type": "BTS"
    },
    {
        "idstation": "N16",
        "name_th": "กรมทหารราบที่ 11",
        "name_en": "11th Infantry Regiment",
        "location": "บริเวณด้านหน้ากรมทหารราบที่ 11 มหาดเล็กราชวัลลภรักษาพระองค์",
        "id_btsline": "2",
        "btsline": "เส้นทางรถไฟฟ้าบีทีเอส สายสุขุมวิท (สีเขียวอ่อน)",
        "dcode": "1005",
        "dname": "เขตบางเขน",
        "station_co": "",
        "lat": "13.86764879",
        "lng": "100.5920557",
        "type": "BTS"
    },
    {
        "idstation": "N15",
        "name_th": "บางบัว",
        "name_en": "Bang Bua",
        "location": "บริเวณด้านหน้า มหาวิทยาลัยศรีปทุม และโรงเรียนบางบัว (เพ่งตั้งตรงจิตวิทยาคาร) ใกล้กับแยกบางบัว",
        "id_btsline": "2",
        "btsline": "เส้นทางรถไฟฟ้าบีทีเอส สายสุขุมวิท (สีเขียวอ่อน)",
        "dcode": "1005",
        "dname": "เขตบางเขน",
        "station_co": "",
        "lat": "13.85601494",
        "lng": "100.5851953",
        "type": "BTS"
    },
    {
        "idstation": "N14",
        "name_th": "กรมป่าไม้",
        "name_en": "Royal Forest Department",
        "location": "บริเวณด้านหน้ากรมป่าไม้ และโรงเรียนสารวิทยา",
        "id_btsline": "2",
        "btsline": "เส้นทางรถไฟฟ้าบีทีเอส สายสุขุมวิท (สีเขียวอ่อน)",
        "dcode": "1030",
        "dname": "เขตจตุจักร",
        "station_co": "",
        "lat": "13.85025175",
        "lng": "100.5818259",
        "type": "BTS"
    },
    {
        "idstation": "G2",
        "name_th": "เจริญนคร",
        "name_en": "Charoen Nakhon (ICONSIAM)",
        "location": "เจริญนคร",
        "id_btsline": "3",
        "btsline": "เส้นทางรถไฟฟ้า สายสีทอง",
        "dcode": "1018",
        "dname": "เขตคลองสาน",
        "station_co": "",
        "lat": "13.72646504",
        "lng": "100.509057",
        "type": "BTS"
    },
    {
        "idstation": "G3",
        "name_th": "คลองสาน",
        "name_en": "Khlong San",
        "location": "สมเด็จเจ้าพระยา",
        "id_btsline": "3",
        "btsline": "เส้นทางรถไฟฟ้า สายสีทอง",
        "dcode": "1018",
        "dname": "เขตคลองสาน",
        "station_co": "",
        "lat": "13.73038781",
        "lng": "100.5076304",
        "type": "BTS"
    },
    {
        "idstation": "S4",
        "name_th": "เซนต์หลุยส์",
        "name_en": "Saint Louis",
        "location": "บริเวณปากซอยสาทร 11 (ซอยเซนต์หลุยส์ 3) ด้านหน้าอาคารเอไอเอ ทาวเวอร์",
        "id_btsline": "1",
        "btsline": "เส้นทางรถไฟฟ้าบีทีเอส สายสีลม (สีเขียวเข้ม)",
        "dcode": "1028",
        "dname": "เขตสาทร",
        "station_co": "",
        "lat": "13.72081548",
        "lng": "100.5266994",
        "type": "BTS"
    },
    {
        "idstation": "N24",
        "name_th": "คูคต",
        "name_en": "Khu Khot",
        "location": "บริเวณสถานีตำรวจภูธรคูคต ในพื้นที่ตำบลคูคต อำเภอลำลูกกา จังหวัดปทุมธานี",
        "id_btsline": "2",
        "btsline": "เส้นทางรถไฟฟ้าบีทีเอส สายสุขุมวิท (สีเขียวอ่อน)",
        "dcode": " ",
        "dname": "",
        "station_co": "",
        "lat": "13.93238496",
        "lng": "100.6465697",
        "type": "BTS"
    },
    {
        "idstation": "N23",
        "name_th": "แยก คปอ.",
        "name_en": "Yaek Kor Por Aor",
        "location": "บริเวณด้านหน้ากรมควบคุมการปฏิบัติการทางอากาศ",
        "id_btsline": "2",
        "btsline": "เส้นทางรถไฟฟ้าบีทีเอส สายสุขุมวิท (สีเขียวอ่อน)",
        "dcode": "1036",
        "dname": "เขตดอนเมือง",
        "station_co": "",
        "lat": "13.92504891",
        "lng": "100.6258727",
        "type": "BTS"
    },
    {
        "idstation": "N22",
        "name_th": "พิพิธภัณฑ์กองทัพอากาศ",
        "name_en": "Royal Thai Air Force Museum",
        "location": "ด้านหน้าฐานทัพอากาศดอนเมือง ในพื้นที่แขวงสนามบิน เขตดอนเมือง และแขวงคลองถนน เขตสายไหม",
        "id_btsline": "2",
        "btsline": "เส้นทางรถไฟฟ้าบีทีเอส สายสุขุมวิท (สีเขียวอ่อน)",
        "dcode": "1036",
        "dname": "เขตดอนเมือง",
        "station_co": "",
        "lat": "13.9178731",
        "lng": "100.6216492",
        "type": "BTS"
    },
    {
        "idstation": "N21",
        "name_th": "โรงพยาบาลภูมิพลอดุลยเดช",
        "name_en": "Bhumibol Adulyadej Hospital",
        "location": "บริเวณด้านหน้ากรมแพทย์ทหารอากาศ โรงพยาบาลภูมิพลอดุลยเดช และฐานทัพอากาศดอนเมือง",
        "id_btsline": "2",
        "btsline": "เส้นทางรถไฟฟ้าบีทีเอส สายสุขุมวิท (สีเขียวอ่อน)",
        "dcode": "1036",
        "dname": "เขตดอนเมือง",
        "station_co": "",
        "lat": "13.91058043",
        "lng": "100.6173142",
        "type": "BTS"
    },
    {
        "idstation": "N20",
        "name_th": "สะพานใหม่",
        "name_en": "Saphan Mai",
        "location": "บริเวณด้านหน้าตลาดยิ่งเจริญพลาซ่า",
        "id_btsline": "2",
        "btsline": "เส้นทางรถไฟฟ้าบีทีเอส สายสุขุมวิท (สีเขียวอ่อน)",
        "dcode": "1005",
        "dname": "เขตบางเขน",
        "station_co": "",
        "lat": "13.8964893",
        "lng": "100.609037",
        "type": "BTS"
    },
    {
        "idstation": "N19",
        "name_th": "สายหยุด",
        "name_en": "Sai Yud",
        "location": "บริเวณด้านหน้าซอยพหลโยธิน 69",
        "id_btsline": "2",
        "btsline": "เส้นทางรถไฟฟ้าบีทีเอส สายสุขุมวิท (สีเขียวอ่อน)",
        "dcode": "1005",
        "dname": "เขตบางเขน",
        "station_co": "",
        "lat": "13.88841275",
        "lng": "100.6042717",
        "type": "BTS"
    },
    {
        "idstation": "N18",
        "name_th": "พหลโยธิน 59",
        "name_en": "Phahon Yothin 59",
        "location": "บริเวณด้านหน้าซอยพหลโยธิน 59 และซอยหมู่บ้านราชตฤณมัย กับหมู่บ้านฝนทองนิเวศน์",
        "id_btsline": "2",
        "btsline": "เส้นทางรถไฟฟ้าบีทีเอส สายสุขุมวิท (สีเขียวอ่อน)",
        "dcode": "1005",
        "dname": "เขตบางเขน",
        "station_co": "",
        "lat": "13.88251503",
        "lng": "100.6007986",
        "type": "BTS"
    },
    {
        "idstation": "N17",
        "name_th": "วัดพระศรีมหาธาตุ",
        "name_en": "Wat Phra Sri Mahathat",
        "location": "บริเวณกลางวงเวียนอนุสาวรีย์พิทักษ์รัฐธรรมนูญ จุดตัดระหว่างถนนพหลโยธิน ถนนแจ้งวัฒนะ และถนนรามอินทรา",
        "id_btsline": "2",
        "btsline": "เส้นทางรถไฟฟ้าบีทีเอส สายสุขุมวิท (สีเขียวอ่อน)",
        "dcode": "1005",
        "dname": "เขตบางเขน",
        "station_co": "",
        "lat": "13.87525635",
        "lng": "100.596715",
        "type": "BTS"
    },
    {
        "idstation": "E15",
        "name_th": "สำโรง",
        "name_en": "Samrong",
        "location": "ถนนสุขุมวิท ระหว่างสะพานข้ามคลองสำโรงกับทางแยกเทพารักษ์ ในพื้นที่จ.สมุทรปราการ",
        "id_btsline": "2",
        "btsline": "เส้นทางรถไฟฟ้าบีทีเอส สายสุขุมวิท (สีเขียวอ่อน)",
        "dcode": " ",
        "dname": "",
        "station_co": "สถานีเชื่อมต่อรถไฟฟ้ามหานคร สายสีเหลือง สถานี YL23",
        "lat": "13.64656537",
        "lng": "100.5958207",
        "type": "BTS"
    },
    {
        "idstation": "E16",
        "name_th": "ปู่เจ้า",
        "name_en": "Pu Chao",
        "location": "ถนนสุขุมวิท บริเวณปากซอยสุขุมวิท 115 ใกล้กับห้างสรรพสินค้าบิ๊กซี ในพื้นที่จ.สมุทรปราการ",
        "id_btsline": "2",
        "btsline": "เส้นทางรถไฟฟ้าบีทีเอส สายสุขุมวิท (สีเขียวอ่อน)",
        "dcode": " ",
        "dname": "",
        "station_co": "",
        "lat": "13.63738772",
        "lng": "100.5920527",
        "type": "BTS"
    },
    {
        "idstation": "E17",
        "name_th": "ช้างเอราวัณ",
        "name_en": "Chang Erawan",
        "location": "ถนนสุขุมวิท บริเวณซอยสุขุมวิท 7 ในพื้นที่จ.สมุทรปราการ",
        "id_btsline": "2",
        "btsline": "เส้นทางรถไฟฟ้าบีทีเอส สายสุขุมวิท (สีเขียวอ่อน)",
        "dcode": " ",
        "dname": "",
        "station_co": "",
        "lat": "13.62147272",
        "lng": "100.590181",
        "type": "BTS"
    },
    {
        "idstation": "E18",
        "name_th": "โรงเรียนนายเรือ",
        "name_en": "Royal Thai Naval Academy",
        "location": "ถนนสุขุมวิท บริเวณด้านหน้าโรงเรียนนายเรือ ในพื้นที่จ.สมุทรปราการ",
        "id_btsline": "2",
        "btsline": "เส้นทางรถไฟฟ้าบีทีเอส สายสุขุมวิท (สีเขียวอ่อน)",
        "dcode": " ",
        "dname": "",
        "station_co": "",
        "lat": "13.60848025",
        "lng": "100.5949182",
        "type": "BTS"
    },
    {
        "idstation": "E19",
        "name_th": "ปากน้ำ",
        "name_en": "Pak Nam",
        "location": "ถนนสุขุมวิท บริเวณหน้าวิทยาลัยสารพัดช่างสมุทรปราการ ในพื้นที่จ.สมุทรปราการ",
        "id_btsline": "2",
        "btsline": "เส้นทางรถไฟฟ้าบีทีเอส สายสุขุมวิท (สีเขียวอ่อน)",
        "dcode": " ",
        "dname": "",
        "station_co": "",
        "lat": "13.60216596",
        "lng": "100.597103",
        "type": "BTS"
    },
    {
        "idstation": "E20",
        "name_th": "ศรีนครินทร์",
        "name_en": "Srinagarindra",
        "location": "ถนนสุขุมวิท บริเวณสะพานข้ามคลองบางปิ้งและทางแยกการไฟฟ้าสมุทรปราการ",
        "id_btsline": "2",
        "btsline": "เส้นทางรถไฟฟ้าบีทีเอส สายสุขุมวิท (สีเขียวอ่อน)",
        "dcode": " ",
        "dname": "",
        "station_co": "",
        "lat": "13.59196551",
        "lng": "100.6090107",
        "type": "BTS"
    },
    {
        "idstation": "E21",
        "name_th": "แพรกษา",
        "name_en": "Phraek Sa",
        "location": "ถนนสุขุมวิท บริเวณด้านหน้าโรงเรียนสมุทรปราการ",
        "id_btsline": "2",
        "btsline": "เส้นทางรถไฟฟ้าบีทีเอส สายสุขุมวิท (สีเขียวอ่อน)",
        "dcode": " ",
        "dname": "",
        "station_co": "",
        "lat": "13.58421744",
        "lng": "100.6078495",
        "type": "BTS"
    },
    {
        "idstation": "E22",
        "name_th": "สายลวด",
        "name_en": "Sai Luat",
        "location": "ถนนสุขุมวิท บริเวณปากซอยเทศบาลบางปู 43 ใกล้ทางแยกสายลวด ในพื้นที่จ.สมุทรปราการ",
        "id_btsline": "2",
        "btsline": "เส้นทางรถไฟฟ้าบีทีเอส สายสุขุมวิท (สีเขียวอ่อน)",
        "dcode": " ",
        "dname": "",
        "station_co": "",
        "lat": "13.57779717",
        "lng": "100.6054316",
        "type": "BTS"
    },
    {
        "idstation": "E23",
        "name_th": "เคหะฯ",
        "name_en": "Kheha",
        "location": "ถนนสุขุมวิท บริเวณปากซอยเทศบาลบางปู 50 ในพื้นที่จ.สมุทรปราการ",
        "id_btsline": "2",
        "btsline": "เส้นทางรถไฟฟ้าบีทีเอส สายสุขุมวิท (สีเขียวอ่อน)",
        "dcode": " ",
        "dname": "",
        "station_co": "",
        "lat": "13.56773098",
        "lng": "100.6077108",
        "type": "BTS"
    },
    {
        "idstation": "G1",
        "name_th": "กรุงธนบุรี",
        "name_en": "Krung Thon Buri",
        "location": "แขวงคลองต้นไทร เขตคลองสาน กรุงเทพมหานคร 10600",
        "id_btsline": "3",
        "btsline": "เส้นทางรถไฟฟ้า สายสีทอง",
        "dcode": "1018",
        "dname": "เขตคลองสาน",
        "station_co": "สถานีเชื่อมต่อเส้นทางรถไฟฟ้าบีทีเอส สายสีลม (สีเขียวเข้ม) สถานี S7",
        "lat": "13.72106499",
        "lng": "100.5037059",
        "type": "BTS"
    },
    {
        "id_station": "BL01",
        "name_th": "ท่าพระ",
        "name_en": "Tha Phra",
        "location": "ยกระดับเหนือแยกท่าพระ ซึ่งเป็นจุดตัดระหว่างถนนจรัญสนิทวงศ์ ถนนเพชรเกษม และถนนรัชดาภิเษกฝั่งใต้",
        "id_mrtline": "1",
        "mrtline": "เส้นทางรถไฟฟ้ามหานคร สายสีน้ำเงิน",
        "station_co": "",
        "dcode": "1016",
        "dname": "บางกอกใหญ่",
        "lat": "13.7296593",
        "lng": "100.4740885",
        "type": "MRT"
    },
    {
        "id_station": "BL02",
        "name_th": "จรัญฯ 13",
        "name_en": "Charan 13",
        "location": "ถนนจรัญสนิทวงศ์ บริเวณแยกพาณิชยการธนบุรี",
        "id_mrtline": "1",
        "mrtline": "เส้นทางรถไฟฟ้ามหานคร สายสีน้ำเงิน",
        "station_co": "",
        "dcode": "1016",
        "dname": "บางกอกใหญ่",
        "lat": "13.74005671",
        "lng": "100.4707321",
        "type": "MRT"
    },
    {
        "id_station": "BL03",
        "name_th": "ไฟฉาย",
        "name_en": "Fai Chai",
        "location": "ถนนจรัญสนิทวงศ์ บริเวณด้านเหนือของแยกไฟฉาย",
        "id_mrtline": "1",
        "mrtline": "เส้นทางรถไฟฟ้ามหานคร สายสีน้ำเงิน",
        "station_co": "",
        "dcode": "1020",
        "dname": "บางกอกน้อย",
        "lat": "13.7557305",
        "lng": "100.4693411",
        "type": "MRT"
    },
    {
        "id_station": "BL04",
        "name_th": "บางขุนนนท์",
        "name_en": "Bang Khun Non",
        "location": "ถนนจรัญสนิทวงศ์ ระหว่างสี่แยกบางขุนนนท์",
        "id_mrtline": "1",
        "mrtline": "เส้นทางรถไฟฟ้ามหานคร สายสีน้ำเงิน",
        "station_co": "",
        "dcode": "1020",
        "dname": "บางกอกน้อย",
        "lat": "13.76334485",
        "lng": "100.4733652",
        "type": "MRT"
    },
    {
        "id_station": "BL05",
        "name_th": "บางยี่ขัน",
        "name_en": "Bang Yi Khan",
        "location": "ถนนจรัญสนิทวงศ์ หน้าปากซอยจรัญสนิทวงศ์ 42 บริเวณหน้าตลาดอินดี้ปิ่นเกล้า",
        "id_mrtline": "1",
        "mrtline": "เส้นทางรถไฟฟ้ามหานคร สายสีน้ำเงิน",
        "station_co": "",
        "dcode": "1025",
        "dname": "บางพลัด",
        "lat": "13.77747388",
        "lng": "100.4853472",
        "type": "MRT"
    },
    {
        "id_station": "BL06",
        "name_th": "สิรินธร",
        "name_en": "Sirindhorn",
        "location": "ยกระดับเหนือถนนจรัญสนิทวงศ์ กรุงเทพมหานคร",
        "id_mrtline": "1",
        "mrtline": "เส้นทางรถไฟฟ้ามหานคร สายสีน้ำเงิน",
        "station_co": "",
        "dcode": "1025",
        "dname": "บางพลัด",
        "lat": "13.783808",
        "lng": "100.4932301",
        "type": "MRT"
    },
    {
        "id_station": "BL07",
        "name_th": "บางพลัด",
        "name_en": "Bang Phlat",
        "location": "ถนนจรัญสนิทวงศ์ บริเวณด้านหน้าธนาคารกสิกรไทย สาขาบางพลัด",
        "id_mrtline": "1",
        "mrtline": "เส้นทางรถไฟฟ้ามหานคร สายสีน้ำเงิน",
        "station_co": "",
        "dcode": "1025",
        "dname": "บางพลัด",
        "lat": "13.79238778",
        "lng": "100.5048644",
        "type": "MRT"
    },
    {
        "id_station": "BL08",
        "name_th": "บางอ้อ",
        "name_en": "Bang O",
        "location": "ถนนจรัญสนิทวงศ์บริเวณซอยจรัญสนิทวงศ์ 88",
        "id_mrtline": "1",
        "mrtline": "เส้นทางรถไฟฟ้ามหานคร สายสีน้ำเงิน",
        "station_co": "",
        "dcode": "1025",
        "dname": "บางพลัด",
        "lat": "13.79899246",
        "lng": "100.5097903",
        "type": "MRT"
    },
    {
        "id_station": "BL09",
        "name_th": "บางโพ",
        "name_en": "Bang Pho",
        "location": "ถนนประชาราษฎร์ สาย 2 บริเวณสี่แยกบางโพ",
        "id_mrtline": "1",
        "mrtline": "เส้นทางรถไฟฟ้ามหานคร สายสีน้ำเงิน",
        "station_co": "",
        "dcode": "1029",
        "dname": "บางซื่อ",
        "lat": "13.80640723",
        "lng": "100.5211039",
        "type": "MRT"
    },
    {
        "id_station": "BL11",
        "name_th": "บางซื่อ",
        "name_en": "Bang Sue",
        "location": "ใกล้สถานีรถไฟบางซื่อ ถนนเทอดดำริ",
        "id_mrtline": "1",
        "mrtline": "เส้นทางรถไฟฟ้ามหานคร สายสีน้ำเงิน",
        "station_co": "",
        "dcode": "1030",
        "dname": "จตุจักร",
        "lat": "13.80235091",
        "lng": "100.5410375",
        "type": "MRT"
    },
    {
        "id_station": "BL12",
        "name_th": "กำแพงเพชร",
        "name_en": "Kamphaeng Phet",
        "location": "ถนนกำแพงเพชร บริเวณสามแยกกำแพงเพชร 2 หน้าตลาด อ.ต.ก. และตลาดนัดจตุจักร",
        "id_mrtline": "1",
        "mrtline": "เส้นทางรถไฟฟ้ามหานคร สายสีน้ำเงิน",
        "station_co": "",
        "dcode": "1030",
        "dname": "จตุจักร",
        "lat": "13.79793257",
        "lng": "100.547936",
        "type": "MRT"
    },
    {
        "id_station": "BL13",
        "name_th": "สวนจตุจักร",
        "name_en": "Chatuchak Park",
        "location": "ถนนพหลโยธิน ฝั่งทิศตะวันตก ในอาณาเขตสวนจตุจักรด้านทิศใต้ ตรงข้ามศูนย์ซ่อมบำรุงหมอชิต",
        "id_mrtline": "1",
        "mrtline": "เส้นทางรถไฟฟ้ามหานคร สายสีน้ำเงิน",
        "station_co": "",
        "dcode": "1030",
        "dname": "จตุจักร",
        "lat": "13.80295124",
        "lng": "100.5533613",
        "type": "MRT"
    },
    {
        "id_station": "BL14",
        "name_th": "พหลโยธิน",
        "name_en": "Phahon Yothin",
        "location": "บริเวณห้าแยกลาดพร้าว จุดบรรจบถนนลาดพร้าว, ถนนพหลโยธิน และถนนวิภาวดีรังสิต",
        "id_mrtline": "1",
        "mrtline": "เส้นทางรถไฟฟ้ามหานคร สายสีน้ำเงิน",
        "station_co": "",
        "dcode": "1030",
        "dname": "จตุจักร",
        "lat": "13.81296882",
        "lng": "100.5615673",
        "type": "MRT"
    },
    {
        "id_station": "BL15",
        "name_th": "ลาดพร้าว",
        "name_en": "Lat Phrao",
        "location": "ถนนลาดพร้าว บริเวณทิศตะวันตกของสี่แยกรัชดา-ลาดพร้าว จุดบรรจบถนนลาดพร้าวและถนนรัชดาภิเษก",
        "id_mrtline": "1",
        "mrtline": "เส้นทางรถไฟฟ้ามหานคร สายสีน้ำเงิน",
        "station_co": "",
        "dcode": "1030",
        "dname": "จตุจักร",
        "lat": "13.8065239",
        "lng": "100.572901",
        "type": "MRT"
    },
    {
        "id_station": "BL16",
        "name_th": "รัชดาภิเษก",
        "name_en": "Ratchadaphisek",
        "location": "ถนนรัชดาภิเษก บริเวณทิศเหนือของปากซอยโชคชัยร่วมมิตร และสะพานข้ามคลองบางซื่อ",
        "id_mrtline": "1",
        "mrtline": "เส้นทางรถไฟฟ้ามหานคร สายสีน้ำเงิน",
        "station_co": "",
        "dcode": "1026",
        "dname": "ดินแดง",
        "lat": "13.79895711",
        "lng": "100.5744781",
        "type": "MRT"
    },
    {
        "id_station": "BL17",
        "name_th": "สุทธิสาร",
        "name_en": "Sutthisan",
        "location": "ถนนรัชดาภิเษก บริเวณกลางทางแยกรัชดา-สุทธิสาร",
        "id_mrtline": "1",
        "mrtline": "เส้นทางรถไฟฟ้ามหานคร สายสีน้ำเงิน",
        "station_co": "",
        "dcode": "1026",
        "dname": "ดินแดง",
        "lat": "13.78945997",
        "lng": "100.5740167",
        "type": "MRT"
    },
    {
        "id_station": "BL18",
        "name_th": "ห้วยขวาง",
        "name_en": "Huai Khwang",
        "location": "ถนนรัชดาภิเษก บริเวณกลางแยกห้วยขวาง",
        "id_mrtline": "1",
        "mrtline": "เส้นทางรถไฟฟ้ามหานคร สายสีน้ำเงิน",
        "station_co": "",
        "dcode": "1026",
        "dname": "ดินแดง",
        "lat": "13.77869774",
        "lng": "100.5734915",
        "type": "MRT"
    },
    {
        "id_station": "BL19",
        "name_th": "ศูนย์วัฒนธรรมแห่งประเทศไทย",
        "name_en": "Thailand Cultural Centre",
        "location": "ใต้ถนนรัชดาภิเษก บริเวณด้านหน้าศูนย์การค้าเอสพลานาด รัชดาภิเษก",
        "id_mrtline": "1",
        "mrtline": "เส้นทางรถไฟฟ้ามหานคร สายสีน้ำเงิน",
        "station_co": "",
        "dcode": "1026",
        "dname": "ดินแดง",
        "lat": "13.76630887",
        "lng": "100.5700702",
        "type": "MRT"
    },
    {
        "id_station": "BL20",
        "name_th": "พระราม 9",
        "name_en": "Phra Ram 9",
        "location": "ถนนรัชดาภิเษก บริเวณทิศเหนือของสี่แยกพระราม 9",
        "id_mrtline": "1",
        "mrtline": "เส้นทางรถไฟฟ้ามหานคร สายสีน้ำเงิน",
        "station_co": "",
        "dcode": "1026",
        "dname": "ดินแดง",
        "lat": "13.75784279",
        "lng": "100.5652421",
        "type": "MRT"
    },
    {
        "id_station": "BL21",
        "name_th": "เพชรบุรี",
        "name_en": "Phetchaburi",
        "location": "ถนนรัชดาภิเษก (อโศก-ดินแดง) บริเวณทิศเหนือของสี่แยกอโศก-เพชรบุรี",
        "id_mrtline": "1",
        "mrtline": "เส้นทางรถไฟฟ้ามหานคร สายสีน้ำเงิน",
        "station_co": "",
        "dcode": "1037",
        "dname": "ราชเทวี",
        "lat": "13.74919525",
        "lng": "100.5633537",
        "type": "MRT"
    },
    {
        "id_station": "BL22",
        "name_th": "สุขุมวิท",
        "name_en": "Sukhumvit",
        "location": "ถนนอโศกมนตรี หน้าตลาดอโศก ด้านทิศเหนือของสี่แยกอโศกมนตรี",
        "id_mrtline": "1",
        "mrtline": "เส้นทางรถไฟฟ้ามหานคร สายสีน้ำเงิน",
        "station_co": "",
        "dcode": "1039",
        "dname": "วัฒนา",
        "lat": "13.73738427",
        "lng": "100.5614168",
        "type": "MRT"
    },
    {
        "id_station": "BL23",
        "name_th": "ศูนย์ฯ สิริกิติ์",
        "name_en": "Queen Sirikit NCC",
        "location": "ถนนรัชดาภิเษกตัดใหม่ ด้านหน้าศูนย์การประชุมแห่งชาติสิริกิติ์",
        "id_mrtline": "1",
        "mrtline": "เส้นทางรถไฟฟ้ามหานคร สายสีน้ำเงิน",
        "station_co": "",
        "dcode": "1033",
        "dname": "คลองเตย",
        "lat": "13.72262377",
        "lng": "100.5599045",
        "type": "MRT"
    },
    {
        "id_station": "BL24",
        "name_th": "คลองเตย",
        "name_en": "Khlong Toei",
        "location": "ถนนพระรามที่ 4 ด้านหน้าสำนักงานการไฟฟ้านครหลวงเขตคลองเตย",
        "id_mrtline": "1",
        "mrtline": "เส้นทางรถไฟฟ้ามหานคร สายสีน้ำเงิน",
        "station_co": "",
        "dcode": "1033",
        "dname": "คลองเตย",
        "lat": "13.72229036",
        "lng": "100.5540033",
        "type": "MRT"
    },
    {
        "id_station": "BL25",
        "name_th": "ลุมพินี",
        "name_en": "Lumphini",
        "location": "ถนนพระรามที่ 4 บริเวณทิศตะวันออกของสี่แยกวิทยุ จุดบรรจบของถนนวิทยุ และถนนสาทรเหนือ-ใต้",
        "id_mrtline": "1",
        "mrtline": "เส้นทางรถไฟฟ้ามหานคร สายสีน้ำเงิน",
        "station_co": "",
        "dcode": "1007",
        "dname": "ปทุมวัน",
        "lat": "13.7257317",
        "lng": "100.5457784",
        "type": "MRT"
    },
    {
        "id_station": "BL26",
        "name_th": "สีลม",
        "name_en": "Si Lom",
        "location": "ใต้ผิวถนนพระรามที่ 4 บริเวณสี่แยกศาลาแดงด้านทิศตะวันออก หน้าสวนลุมพินี",
        "id_mrtline": "1",
        "mrtline": "เส้นทางรถไฟฟ้ามหานคร สายสีน้ำเงิน",
        "station_co": "",
        "dcode": "1007",
        "dname": "ปทุมวัน",
        "lat": "13.72928274",
        "lng": "100.5373135",
        "type": "MRT"
    },
    {
        "id_station": "BL27",
        "name_th": "สามย่าน",
        "name_en": "Sam Yan",
        "location": "ถนนพระรามที่ 4 บริเวณสี่แยกสามย่านด้านทิศตะวันออกหน้าวัดหัวลำโพง",
        "id_mrtline": "1",
        "mrtline": "เส้นทางรถไฟฟ้ามหานคร สายสีน้ำเงิน",
        "station_co": "",
        "dcode": "1007",
        "dname": "ปทุมวัน",
        "lat": "13.73222813",
        "lng": "100.5302684",
        "type": "MRT"
    },
    {
        "id_station": "BL28",
        "name_th": "หัวลำโพง",
        "name_en": "Hua Lamphong",
        "location": "ใต้ถนนพระรามที่ 4 บริเวณแยกหัวลำโพง จุดบรรจบ ถนนพระรามที่ 4, ถนนรองเมือง",
        "id_mrtline": "1",
        "mrtline": "เส้นทางรถไฟฟ้ามหานคร สายสีน้ำเงิน",
        "station_co": "",
        "dcode": "1007",
        "dname": "ปทุมวัน",
        "lat": "13.73755186",
        "lng": "100.5171633",
        "type": "MRT"
    },
    {
        "id_station": "BL29",
        "name_th": "วัดมังกร",
        "name_en": "Wat Mangkon",
        "location": "ถนนเจริญกรุง บริเวณสี่แยกแปลงนาม",
        "id_mrtline": "1",
        "mrtline": "เส้นทางรถไฟฟ้ามหานคร สายสีน้ำเงิน",
        "station_co": "",
        "dcode": "1008",
        "dname": "ป้อมปราบศัตรูพ่าย",
        "lat": "13.74228753",
        "lng": "100.5099535",
        "type": "MRT"
    },
    {
        "id_station": "BL30",
        "name_th": "สามยอด",
        "name_en": "Sam Yot",
        "location": "ถนนเจริญกรุง ตั้งแต่บริเวณแยกสามยอด",
        "id_mrtline": "1",
        "mrtline": "เส้นทางรถไฟฟ้ามหานคร สายสีน้ำเงิน",
        "station_co": "",
        "dcode": "1001",
        "dname": "พระนคร  ",
        "lat": "13.74705362",
        "lng": "100.5021701",
        "type": "MRT"
    },
    {
        "id_station": "BL31",
        "name_th": "สนามไชย",
        "name_en": "Sanam Chai",
        "location": "ถนนสนามไชย ด้านทิศเหนือของแยกสะพานเจริญรัช 31 หรือปากคลองตลาด",
        "id_mrtline": "1",
        "mrtline": "เส้นทางรถไฟฟ้ามหานคร สายสีน้ำเงิน",
        "station_co": "",
        "dcode": "1001",
        "dname": "พระนคร  ",
        "lat": "13.74434176",
        "lng": "100.4947367",
        "type": "MRT"
    },
    {
        "id_station": "BL32",
        "name_th": "อิสรภาพ",
        "name_en": "Itsaraphap",
        "location": "ระหว่างซอยอิสรภาพ 23 (ซอยวัดราชสิทธาราม) และซอยอิสรภาพ 34 (ซอยพิเศษสุข)",
        "id_mrtline": "1",
        "mrtline": "เส้นทางรถไฟฟ้ามหานคร สายสีน้ำเงิน",
        "station_co": "",
        "dcode": "1016",
        "dname": "บางกอกใหญ่",
        "lat": "13.73831268",
        "lng": "100.4857197",
        "type": "MRT"
    },
    {
        "id_station": "BL33",
        "name_th": "บางไผ่",
        "name_en": "Bang Phai",
        "location": "ถนนเพชรเกษม ระหว่างซอยเพชรเกษม 19 กับซอยเพชรเกษม 19/2 บริเวณหน้าโรงพยาบาลบางไผ่",
        "id_mrtline": "1",
        "mrtline": "เส้นทางรถไฟฟ้ามหานคร สายสีน้ำเงิน",
        "station_co": "",
        "dcode": "1022",
        "dname": "ภาษีเจริญ",
        "lat": "13.72473175",
        "lng": "100.4651442",
        "type": "MRT"
    },
    {
        "id_station": "BL34",
        "name_th": "บางหว้า",
        "name_en": "Bang Wa",
        "location": "ถนนราชพฤกษ์ บริเวณด้านข้างสะพานยกระดับข้ามทางแยกต่างระดับเพชรเกษม",
        "id_mrtline": "1",
        "mrtline": "เส้นทางรถไฟฟ้ามหานคร สายสีน้ำเงิน",
        "station_co": "",
        "dcode": "1022",
        "dname": "ภาษีเจริญ",
        "lat": "13.72070709",
        "lng": "100.4578516",
        "type": "MRT"
    },
    {
        "id_station": "BL35",
        "name_th": "เพชรเกษม 48",
        "name_en": "Phetkasem 48",
        "location": "ถนนเพชรเกษม ระหว่างซอยเพชรเกษม 31/1 และ 46/2",
        "id_mrtline": "1",
        "mrtline": "เส้นทางรถไฟฟ้ามหานคร สายสีน้ำเงิน",
        "station_co": "",
        "dcode": "1022",
        "dname": "ภาษีเจริญ",
        "lat": "13.71541044",
        "lng": "100.4454476",
        "type": "MRT"
    },
    {
        "id_station": "BL36",
        "name_th": "ภาษีเจริญ",
        "name_en": "Phasi Charoen",
        "location": "ถนนเพชรเกษม หน้าศูนย์สรรพสินค้าซีคอนบางแค",
        "id_mrtline": "1",
        "mrtline": "เส้นทางรถไฟฟ้ามหานคร สายสีน้ำเงิน",
        "station_co": "",
        "dcode": "1022",
        "dname": "ภาษีเจริญ",
        "lat": "13.7128901",
        "lng": "100.4342906",
        "type": "MRT"
    },
    {
        "id_station": "BL37",
        "name_th": "บางแค",
        "name_en": "Bang Khae",
        "location": "ถนนเพชรเกษม ระหว่างซอยเพชรเกษม 62/3 กับซอยเพชรเกษม 62/4",
        "id_mrtline": "1",
        "mrtline": "เส้นทางรถไฟฟ้ามหานคร สายสีน้ำเงิน",
        "station_co": "",
        "dcode": "1040",
        "dname": "บางแค",
        "lat": "13.71189286",
        "lng": "100.4222739",
        "type": "MRT"
    },
    {
        "id_station": "BL38",
        "name_th": "หลักสอง",
        "name_en": "Lak Song",
        "location": "ถนนเพชรเกษม อยู่ระหว่างซอยเพชรเกษม 80 และทางแยกต่างระดับเพชรเกษม ตัดกับถนนกาญจนาภิเษก",
        "id_mrtline": "1",
        "mrtline": "เส้นทางรถไฟฟ้ามหานคร สายสีน้ำเงิน",
        "station_co": "",
        "dcode": "1040",
        "dname": "บางแค",
        "lat": "13.7108635",
        "lng": "100.4094434",
        "type": "MRT"
    },
    {
        "id_station": "PP01",
        "name_th": "คลองบางไผ่",
        "name_en": "Khlong Bang Phai",
        "location": "ถนนกาญจนาภิเษก บริเวณเยื้องปากซอยบ้านบัวทอง ด้านหน้าอาคารศูนย์ซ่อมบำรุงรถไฟฟ้าและอาคารจอดแล้วจร",
        "id_mrtline": "2",
        "mrtline": "เส้นทางรถไฟฟ้ามหานคร สายสีม่วง",
        "station_co": "",
        "dcode": "",
        "dname": "",
        "lat": "13.89238779",
        "lng": "100.4082208",
        "type": "MRT"
    },
    {
        "id_station": "PP02",
        "name_th": "ตลาดบางใหญ่",
        "name_en": "Talad Bang Yai",
        "location": "ถนนกาญจนาภิเษก",
        "id_mrtline": "2",
        "mrtline": "เส้นทางรถไฟฟ้ามหานคร สายสีม่วง",
        "station_co": "",
        "dcode": "",
        "dname": "",
        "lat": "13.88103687",
        "lng": "100.4092903",
        "type": "MRT"
    },
    {
        "id_station": "PP03",
        "name_th": "สามแยกบางใหญ่",
        "name_en": "Sam Yaek Bang Yai",
        "location": "ถนนรัตนาธิเบศร์ หมู่ที่ 7 บ้านคลองบางเดื่อ ตำบลเสาธงหิน อำเภอบางใหญ่",
        "id_mrtline": "2",
        "mrtline": "เส้นทางรถไฟฟ้ามหานคร สายสีม่วง",
        "station_co": "",
        "dcode": "",
        "dname": "",
        "lat": "13.87469609",
        "lng": "100.4193558",
        "type": "MRT"
    },
    {
        "id_station": "PP04",
        "name_th": "บางพลู",
        "name_en": "Bang Phlu",
        "location": "ถนนรัตนาธิเบศร์ ยกระดับเหนือสะพานข้ามทางแยกบางพลู",
        "id_mrtline": "2",
        "mrtline": "เส้นทางรถไฟฟ้ามหานคร สายสีม่วง",
        "station_co": "",
        "dcode": "",
        "dname": "",
        "lat": "13.87575986",
        "lng": "100.4337962",
        "type": "MRT"
    },
    {
        "id_station": "PP05",
        "name_th": "บางรักใหญ่",
        "name_en": "Bang Rak Yai",
        "location": "ระหว่างทางแยกบางพลูกับทางแยกต่างระดับบางรักน้อย",
        "id_mrtline": "2",
        "mrtline": "เส้นทางรถไฟฟ้ามหานคร สายสีม่วง",
        "station_co": "",
        "dcode": "",
        "dname": "",
        "lat": "13.87660724",
        "lng": "100.4449415",
        "type": "MRT"
    },
    {
        "id_station": "PP06",
        "name_th": "บางรักน้อย-ท่าอิฐ",
        "name_en": "Bang Rak Noi Tha It",
        "location": "ถนนรัตนาธิเบศร์ ใกล้กับทางแยกไทรม้าและอาคารจอดแล้วจรสถานีบางรักน้อยท่าอิฐ",
        "id_mrtline": "2",
        "mrtline": "เส้นทางรถไฟฟ้ามหานคร สายสีม่วง",
        "station_co": "",
        "dcode": "",
        "dname": "",
        "lat": "13.87480634",
        "lng": "100.45595",
        "type": "MRT"
    },
    {
        "id_station": "PP07",
        "name_th": "ไทรม้า",
        "name_en": "Sai Ma",
        "location": "ถนนรัตนาธิเบศร์ บริเวณซอยตาหรั่งและหมู่บ้านซื่อตรง รัตนาธิเบศร์",
        "id_mrtline": "2",
        "mrtline": "เส้นทางรถไฟฟ้ามหานคร สายสีม่วง",
        "station_co": "",
        "dcode": "",
        "dname": "",
        "lat": "13.87047546",
        "lng": "100.4667018",
        "type": "MRT"
    },
    {
        "id_station": "PP08",
        "name_th": "สะพานพระนั่งเกล้า",
        "name_en": "Phra Nang Klao Bridge",
        "location": "ริมถนนรัตนาธิเบศร์ ใกล้กับทางแยกพระนั่งเกล้าฝั่งตะวันออก",
        "id_mrtline": "2",
        "mrtline": "เส้นทางรถไฟฟ้ามหานคร สายสีม่วง",
        "station_co": "",
        "dcode": "",
        "dname": "",
        "lat": "13.87030425",
        "lng": "100.4801163",
        "type": "MRT"
    },
    {
        "id_station": "PP09",
        "name_th": "แยกนนทบุรี 1",
        "name_en": "Yaek Nonthaburi 1",
        "location": "เหนือถนนรัตนาธิเบศร์ บริเวณกลางทางแยกรัตนาธิเบศร์-เลี่ยงเมืองนนทบุรี",
        "id_mrtline": "2",
        "mrtline": "เส้นทางรถไฟฟ้ามหานคร สายสีม่วง",
        "station_co": "",
        "dcode": "",
        "dname": "",
        "lat": "13.86593454",
        "lng": "100.4941053",
        "type": "MRT"
    },
    {
        "id_station": "PP10",
        "name_th": "บางกระสอ",
        "name_en": "Bang Krasor",
        "location": "เหนือถนนรัตนาธิเบศร์ บริเวณหน้าโรงเเรมแกรนด์ ริชมอนด์ และห้างสรรพสินค้าบิ๊กซี สาขารัตนาธิเบศร์",
        "id_mrtline": "2",
        "mrtline": "เส้นทางรถไฟฟ้ามหานคร สายสีม่วง",
        "station_co": "",
        "dcode": "",
        "dname": "",
        "lat": "13.86165786",
        "lng": "100.5046064",
        "type": "MRT"
    },
    {
        "id_station": "PP11",
        "name_th": "ศูนย์ราชการนนทบุรี",
        "name_en": "Nonthaburi Civic Center",
        "location": "เหนือถนนรัตนาธิเบศร์ หน้าศูนย์ราชการจังหวัดนนทบุรี",
        "id_mrtline": "2",
        "mrtline": "เส้นทางรถไฟฟ้ามหานคร สายสีม่วง",
        "station_co": "",
        "dcode": "",
        "dname": "",
        "lat": "13.86018661",
        "lng": "100.5130529",
        "type": "MRT"
    },
    {
        "id_station": "PP12",
        "name_th": "กระทรวงสาธารณสุข",
        "name_en": "Ministry of Public Health",
        "location": "เหนือถนนติวานนท์บริเวณบริเวณทางแยกศรีธัญญา",
        "id_mrtline": "2",
        "mrtline": "เส้นทางรถไฟฟ้ามหานคร สายสีม่วง",
        "station_co": "",
        "dcode": "",
        "dname": "",
        "lat": "13.8485518",
        "lng": "100.5147168",
        "type": "MRT"
    },
    {
        "id_station": "PP13",
        "name_th": "แยกติวานนท์",
        "name_en": "Yaek Tiwanon",
        "location": "เหนือถนนกรุงเทพฯ-นนทบุรี ใกล้ทางแยกติวานนท์",
        "id_mrtline": "2",
        "mrtline": "เส้นทางรถไฟฟ้ามหานคร สายสีม่วง",
        "station_co": "",
        "dcode": "",
        "dname": "",
        "lat": "13.83953803",
        "lng": "100.514973",
        "type": "MRT"
    },
    {
        "id_station": "PP14",
        "name_th": "วงศ์สว่าง",
        "name_en": "Wong Sawang",
        "location": "บนถนนกรุงเทพฯ-นนทบุรี ใกล้ สี่เเยกวงศ์สว่าง",
        "id_mrtline": "2",
        "mrtline": "เส้นทางรถไฟฟ้ามหานคร สายสีม่วง",
        "station_co": "",
        "dcode": "1029",
        "dname": "บางซื่อ",
        "lat": "13.82986686",
        "lng": "100.5264918",
        "type": "MRT"
    },
    {
        "id_station": "PP15",
        "name_th": "บางซ่อน",
        "name_en": "Bang Son",
        "location": "ถนนกรุงเทพ-นนทบุรี ระหว่างซอยกรุงเทพ-นนทบุรี 23 และซอยกรุงเทพ-นนทบุรี 25",
        "id_mrtline": "2",
        "mrtline": "เส้นทางรถไฟฟ้ามหานคร สายสีม่วง",
        "station_co": "",
        "dcode": "1029",
        "dname": "บางซื่อ",
        "lat": "13.82010348",
        "lng": "100.5324499",
        "type": "MRT"
    },
    {
        "id_station": "PP16",
        "name_th": "เตาปูน",
        "name_en": "Tao Poon",
        "location": "แยกเตาปูน (จุดบรรจบระหว่างถนนประชาราษฎร์ สาย 2 กับถนนกรุงเทพ-นนทบุรี)",
        "id_mrtline": "2",
        "mrtline": "เส้นทางรถไฟฟ้ามหานคร สายสีม่วง",
        "station_co": "",
        "dcode": "1029",
        "dname": "บางซื่อ",
        "lat": "13.80614838",
        "lng": "100.5307586",
        "type": "MRT"
    },
    {
        "id_station": "YL01",
        "name_th": "ลาดพร้าว",
        "name_en": "Lat Phrao",
        "location": "ถนนลาดพร้าว บริเวณทิศตะวันตกของสี่แยกรัชดา-ลาดพร้าว",
        "id_mrtline": "3",
        "mrtline": "เส้นทางรถไฟฟ้ามหานคร สายสีเหลือง",
        "station_co": "สถานีเชื่อมต่อเส้นทางรถไฟฟ้ามหานคร สายสีน้ำเงิน สถานี BL15",
        "dcode": "1030",
        "dname": "จตุจักร",
        "lat": "13.80697302",
        "lng": "100.5747539",
        "type": "MRT"
    },
    {
        "id_station": "YL02",
        "name_th": "ภาวนา",
        "name_en": "Phawana",
        "location": "ตั้งอยู่บนถนนลาดพร้าว ระหว่างปากซอยลาดพร้าว 41 (ภาวนา) กับปากซอยลาดพร้าว 41/1",
        "id_mrtline": "3",
        "mrtline": "เส้นทางรถไฟฟ้ามหานคร สายสีเหลือง",
        "station_co": "",
        "dcode": "1017",
        "dname": "ห้วยขวาง",
        "lat": "13.80013312",
        "lng": "100.5841789",
        "type": "MRT"
    },
    {
        "id_station": "YL03",
        "name_th": "โชคชัย 4",
        "name_en": "Chok Chai 4",
        "location": "ถนนลาดพร้าว บริเวณทางแยกโชคชัย 4 (จุดตัดกับถนนโชคชัย 4",
        "id_mrtline": "3",
        "mrtline": "เส้นทางรถไฟฟ้ามหานคร สายสีเหลือง",
        "station_co": "",
        "dcode": "1045",
        "dname": "วังทองหลาง",
        "lat": "13.79423668",
        "lng": "100.5944237",
        "type": "MRT"
    },
    {
        "id_station": "YL04",
        "name_th": "ลาดพร้าว 71",
        "name_en": "Lat Phrao 71",
        "location": "ถนนลาดพร้าว บริเวณจุดตัดกับถนนประดิษฐ์มนูธรรม",
        "id_mrtline": "3",
        "mrtline": "เส้นทางรถไฟฟ้ามหานคร สายสีเหลือง",
        "station_co": "",
        "dcode": "1045",
        "dname": "วังทองหลาง",
        "lat": "13.78703755",
        "lng": "100.6075445",
        "type": "MRT"
    },
    {
        "id_station": "YL05",
        "name_th": "ลาดพร้าว 83",
        "name_en": "Lat Phrao 83",
        "location": "ถนนลาดพร้าว บริเวณหน้าปากซอยลาดพร้าว 85 (อุทิศ 2) และปากซอยลาดพร้าว 100",
        "id_mrtline": "3",
        "mrtline": "เส้นทางรถไฟฟ้ามหานคร สายสีเหลือง",
        "station_co": "",
        "dcode": "1045",
        "dname": "วังทองหลาง",
        "lat": "13.78367139",
        "lng": "100.6136253",
        "type": "MRT"
    },
    {
        "id_station": "YL06",
        "name_th": "มหาดไทย",
        "name_en": "Mahai Thai",
        "location": "ถนนลาดพร้าว บริเวณหน้าปากซอยลาดพร้าว 95 (ปรางค์ทิพย์)",
        "id_mrtline": "3",
        "mrtline": "เส้นทางรถไฟฟ้ามหานคร สายสีเหลือง",
        "station_co": "",
        "dcode": "1045",
        "dname": "วังทองหลาง",
        "lat": "13.77843808",
        "lng": "100.6232072",
        "type": "MRT"
    },
    {
        "id_station": "YL07",
        "name_th": "ลาดพร้าว 101",
        "name_en": "Lat Phrao 101",
        "location": "",
        "id_mrtline": "3",
        "mrtline": "เส้นทางรถไฟฟ้ามหานคร สายสีเหลือง",
        "station_co": "",
        "dcode": "1006",
        "dname": "บางกะปิ",
        "lat": "13.77469684",
        "lng": "100.6299138",
        "type": "MRT"
    },
    {
        "id_station": "YL08",
        "name_th": "บางกะปิ",
        "name_en": "Bang Kapi",
        "location": "ถนนลาดพร้าว บริเวณหน้าปากซอยลาดพร้าว 115",
        "id_mrtline": "3",
        "mrtline": "เส้นทางรถไฟฟ้ามหานคร สายสีเหลือง",
        "station_co": "",
        "dcode": "1006",
        "dname": "บางกะปิ",
        "lat": "13.76903632",
        "lng": "100.6397694",
        "type": "MRT"
    },
    {
        "id_station": "YL09",
        "name_th": "แยกลำสาลี",
        "name_en": "Yaek Lam Sali",
        "location": "ถนนศรีนครินทร์ บริเวณทิศใต้ของทางแยกลำสาลี",
        "id_mrtline": "3",
        "mrtline": "เส้นทางรถไฟฟ้ามหานคร สายสีเหลือง",
        "station_co": "สถานีเชื่อมตอเสนทางเดิน เรือโดยสารคลองแสนแสบ ท่าเดอะมอลล์ บางกะปิ",
        "dcode": "1006",
        "dname": "บางกะปิ",
        "lat": "13.76181247",
        "lng": "100.6454616",
        "type": "MRT"
    },
    {
        "id_station": "YL10",
        "name_th": "ศรีกรีฑา",
        "name_en": "Si Kritha",
        "location": "ถนนศรีนครินทร์ บริเวณทิศใต้ของทางแยกต่างระดับกรุงเทพกรีฑา",
        "id_mrtline": "3",
        "mrtline": "เส้นทางรถไฟฟ้ามหานคร สายสีเหลือง",
        "station_co": "",
        "dcode": "1006",
        "dname": "บางกะปิ",
        "lat": "13.75040076",
        "lng": "100.6448085",
        "type": "MRT"
    },
    {
        "id_station": "YL11",
        "name_th": "หัวหมาก",
        "name_en": "Hua Mak",
        "location": "",
        "id_mrtline": "3",
        "mrtline": "เส้นทางรถไฟฟ้ามหานคร สายสีเหลือง",
        "station_co": "สถานีเชื่อมต่อเส้นทางรถไฟฟ้าแอร์พอร์ต เรล ลิงก์ (Airport Rail Link) สถานีหัวหมาก",
        "dcode": "1034",
        "dname": "สวนหลวง",
        "lat": "13.73614434",
        "lng": "100.6410568",
        "type": "MRT"
    },
    {
        "id_station": "YL12",
        "name_th": "กลันตัน",
        "name_en": "Kalantan",
        "location": "ถนนศรีนครินทร์ บริเวณเชิงสะพานข้ามคลองโคกวัด",
        "id_mrtline": "3",
        "mrtline": "เส้นทางรถไฟฟ้ามหานคร สายสีเหลือง",
        "station_co": "",
        "dcode": "1034",
        "dname": "สวนหลวง",
        "lat": "13.72527482",
        "lng": "100.6417763",
        "type": "MRT"
    },
    {
        "id_station": "YL13",
        "name_th": "ศรีนุช",
        "name_en": "Si Nut",
        "location": "ถนนศรีนครินทร์ ด้านใต้ของทางแยกสวนหลวงหรือทางแยกศรีนุช",
        "id_mrtline": "3",
        "mrtline": "เส้นทางรถไฟฟ้ามหานคร สายสีเหลือง",
        "station_co": "",
        "dcode": "1034",
        "dname": "สวนหลวง",
        "lat": "13.71111235",
        "lng": "100.6442758",
        "type": "MRT"
    },
    {
        "id_station": "YL14",
        "name_th": "ศรีนครินทร์ 38",
        "name_en": "Srinagarindra 38",
        "location": "ถนนศรีนครินทร์ บริเวณปากซอยศรีนครินทร์ 38 (หมู่บ้านมิตรภาพ)",
        "id_mrtline": "3",
        "mrtline": "เส้นทางรถไฟฟ้ามหานคร สายสีเหลือง",
        "station_co": "",
        "dcode": "1032",
        "dname": "ประเวศ",
        "lat": "13.70113658",
        "lng": "100.6465176",
        "type": "MRT"
    },
    {
        "id_station": "YL15",
        "name_th": "สวนหลวง ร.9",
        "name_en": "Suan Luang Rama IX",
        "location": "ถนนศรีนครินทร์ บริเวณปากซอยศรีนครินทร์ 53 (หวังงาม)",
        "id_mrtline": "3",
        "mrtline": "เส้นทางรถไฟฟ้ามหานคร สายสีเหลือง",
        "station_co": "",
        "dcode": "1032",
        "dname": "ประเวศ",
        "lat": "13.69086507",
        "lng": "100.6470192",
        "type": "MRT"
    },
    {
        "id_station": "YL16",
        "name_th": "ศรีอุดม",
        "name_en": "Si Udom",
        "location": "ถนนศรีนครินทร์ บริเวณทางทิศตะวันออกเฉียงใต้ของทางแยกศรีอุดมหรือทางแยกหนองบอน",
        "id_mrtline": "3",
        "mrtline": "เส้นทางรถไฟฟ้ามหานคร สายสีเหลือง",
        "station_co": "",
        "dcode": "1032",
        "dname": "ประเวศ",
        "lat": "13.67664325",
        "lng": "100.6462085",
        "type": "MRT"
    },
    {
        "id_station": "YL17",
        "name_th": "ศรีเอี่ยม",
        "name_en": "Si Iam",
        "location": "ถนนศรีนครินทร์ บริเวณข้างสะพานทางแยกต่างระดับศรีเอี่ยม",
        "id_mrtline": "3",
        "mrtline": "เส้นทางรถไฟฟ้ามหานคร สายสีเหลือง",
        "station_co": "",
        "dcode": "1046",
        "dname": "คลองสามวา",
        "lat": "13.66761207",
        "lng": "100.6450458",
        "type": "MRT"
    },
    {
        "id_station": "YL18",
        "name_th": "ศรีลาซาล",
        "name_en": "Si La Salle",
        "location": "ถนนศรีนครินทร์ บริเวณทางใต้ของทางแยกศรีนครินทร์–ลาซาลหรือทางแยกศิครินทร์",
        "id_mrtline": "3",
        "mrtline": "เส้นทางรถไฟฟ้ามหานคร สายสีเหลือง",
        "station_co": "",
        "dcode": "1046",
        "dname": "คลองสามวา",
        "lat": "13.65496793",
        "lng": "100.6421205",
        "type": "MRT"
    },
    {
        "id_station": "YL19",
        "name_th": "ศรีแบริ่ง",
        "name_en": "Si Bearing",
        "location": "ถนนศรีนครินทร์ บริเวณปากซอยศรีด่าน 13 ใกล้กับทางแยกศรีแบริ่ง",
        "id_mrtline": "3",
        "mrtline": "เส้นทางรถไฟฟ้ามหานคร สายสีเหลือง",
        "station_co": "",
        "dcode": "",
        "dname": "",
        "lat": "13.64355462",
        "lng": "100.6362095",
        "type": "MRT"
    },
    {
        "id_station": "YL20",
        "name_th": "ศรีด่าน",
        "name_en": "Si Dan",
        "location": "ตำบลสำโรงเหนือ อำเภอเมืองสมุทรปราการ จังหวัดสมุทรปราการ",
        "id_mrtline": "3",
        "mrtline": "เส้นทางรถไฟฟ้ามหานคร สายสีเหลือง",
        "station_co": "",
        "dcode": "",
        "dname": "",
        "lat": "13.63320965",
        "lng": "100.6300014",
        "type": "MRT"
    },
    {
        "id_station": "YL21",
        "name_th": "ศรีเทพา",
        "name_en": "Si Thepha",
        "location": "หมู่ที่ 3 บ้านทิพวัล ตำบลเทพารักษ์ อำเภอเมืองสมุทรปราการ จังหวัดสมุทรปราการ",
        "id_mrtline": "3",
        "mrtline": "เส้นทางรถไฟฟ้ามหานคร สายสีเหลือง",
        "station_co": "",
        "dcode": "",
        "dname": "",
        "lat": "13.62994906",
        "lng": "100.6227147",
        "type": "MRT"
    },
    {
        "id_station": "YL22",
        "name_th": "ทิพวัล",
        "name_en": "Thipphawan",
        "location": "หมู่ที่ 3 บ้านทิพวัล ตำบลเทพารักษ์ อำเภอเมืองสมุทรปราการ จังหวัดสมุทรปราการ",
        "id_mrtline": "3",
        "mrtline": "เส้นทางรถไฟฟ้ามหานคร สายสีเหลือง",
        "station_co": "",
        "dcode": "",
        "dname": "",
        "lat": "13.63677534",
        "lng": "100.6099328",
        "type": "MRT"
    },
    {
        "id_station": "YL23",
        "name_th": "สำโรง",
        "name_en": "Samrong",
        "location": "พื้นที่ตำบลเทพารักษ์ อำเภอเมืองสมุทรปราการ จังหวัดสมุทรปราการ",
        "id_mrtline": "3",
        "mrtline": "เส้นทางรถไฟฟ้ามหานคร สายสีเหลือง",
        "station_co": "สถานีเชื่อมต่อเส้นทางเส้นทางรถไฟฟ้าบีทีเอส สายสุขุมวิท (สีเขียวอ่อน)สถานี E15",
        "dcode": "",
        "dname": "",
        "lat": "13.64500554",
        "lng": "100.5966143",
        "type": "MRT"
    },
    {
        "locationId": "2000001",
        "name_th": "ศูนย์ราชการนนทบุรี",
        "name_en": "Nonthaburi Civic Center",
        "lat": "13.8602",
        "lng": "100.5132",
        "type": "MRT"
    },
    {
        "locationId": "2000002",
        "name_th": "แคราย",
        "name_en": "Khae Rai",
        "lat": "13.8587",
        "lng": "100.5220",
        "type": "MRT"
    },
    {
        "locationId": "2000003",
        "name_th": "สนามบินน้ำ",
        "name_en": "Sanambin Nam",
        "lat": "13.8647",
        "lng": "100.5050",
        "type": "MRT"
    },
    {
        "locationId": "2000004",
        "name_th": "สามัคคี",
        "name_en": "Samakkhi",
        "lat": "13.8741",
        "lng": "100.5045",
        "type": "MRT"
    },
    {
        "locationId": "2000005",
        "name_th": "กรมชลประทาน",
        "name_en": "Royal Irrigation Department",
        "lat": "13.8878",
        "lng": "100.5042",
        "type": "MRT"
    },
    {
        "locationId": "2000006",
        "name_th": "แยกปากเกร็ด",
        "name_en": "Yaek Pak Kret",
        "lat": "13.9056",
        "lng": "100.5040",
        "type": "MRT"
    },
    {
        "locationId": "2000007",
        "name_th": "เลี่ยงเมืองปากเกร็ด",
        "name_en": "Pak Kret Bypass",
        "lat": "13.9038",
        "lng": "100.5212",
        "type": "MRT"
    },
    {
        "locationId": "2000008",
        "name_th": "แจ้งวัฒนะ-ปากเกร็ด 28",
        "name_en": "Chaeng Watthana-Pak Kret 28",
        "lat": "13.9015",
        "lng": "100.5317",
        "type": "MRT"
    },
    {
        "locationId": "2000009",
        "name_th": "ศรีรัช",
        "name_en": "Si Rat",
        "lat": "13.8992",
        "lng": "100.5428",
        "type": "MRT"
    },
    {
        "locationId": "2000010",
        "name_th": "เมืองทองธานี",
        "name_en": "Muang Thong Thani",
        "lat": "13.8969",
        "lng": "100.5540",
        "type": "MRT"
    },
    {
        "locationId": "2000011",
        "name_th": "แจ้งวัฒนะ 14",
        "name_en": "Chaeng Watthana 14",
        "lat": "13.8943",
        "lng": "100.5658",
        "type": "MRT"
    },
    {
        "locationId": "2000012",
        "name_th": "ศูนย์ราชการเฉลิมพระเกียรติ",
        "name_en": "Government Complex",
        "lat": "13.8918",
        "lng": "100.5765",
        "type": "MRT"
    },
    {
        "locationId": "2000013",
        "name_th": "โทรคมนาคมแห่งชาติ",
        "name_en": "National Telecom",
        "lat": "13.8893",
        "lng": "100.5873",
        "type": "MRT"
    },
    {
        "locationId": "2000014",
        "name_th": "หลักสี่",
        "name_en": "Lak Si",
        "lat": "13.8845",
        "lng": "100.5968",
        "type": "MRT"
    },
    {
        "locationId": "2000015",
        "name_th": "ราชภัฏพระนคร",
        "name_en": "Rajabhat Phranakhon",
        "lat": "13.8817",
        "lng": "100.6033",
        "type": "MRT"
    },
    {
        "locationId": "2000016",
        "name_th": "วัดพระศรีมหาธาตุ",
        "name_en": "Wat Phra Sri Mahathat",
        "lat": "13.8767",
        "lng": "100.6120",
        "type": "MRT"
    },
    {
        "locationId": "2000017",
        "name_th": "รามอินทรา 3",
        "name_en": "Ram Inthra 3",
        "lat": "13.8725",
        "lng": "100.6215",
        "type": "MRT"
    },
    {
        "locationId": "2000018",
        "name_th": "ลาดปลาเค้า",
        "name_en": "Lat Pla Khao",
        "lat": "13.8648",
        "lng": "100.6308",
        "type": "MRT"
    },
    {
        "locationId": "2000019",
        "name_th": "รามอินทรา กม.4",
        "name_en": "Ram Inthra Kor Mor 4",
        "lat": "13.8582",
        "lng": "100.6402",
        "type": "MRT"
    },
    {
        "locationId": "2000020",
        "name_th": "มัยลาภ",
        "name_en": "Maiyalap",
        "lat": "13.8543",
        "lng": "100.6493",
        "type": "MRT"
    },
    {
        "locationId": "2000021",
        "name_th": "วัชรพล",
        "name_en": "Vacharaphol",
        "lat": "13.8495",
        "lng": "100.6587",
        "type": "MRT"
    },
    {
        "locationId": "2000022",
        "name_th": "รามอินทรา กม.6",
        "name_en": "Ram Inthra Kor Mor 6",
        "lat": "13.8447",
        "lng": "100.6705",
        "type": "MRT"
    },
    {
        "locationId": "2000023",
        "name_th": "คู้บอน",
        "name_en": "Khu Bon",
        "lat": "13.8398",
        "lng": "100.6798",
        "type": "MRT"
    },
    {
        "locationId": "2000024",
        "name_th": "รามอินทรา กม.9",
        "name_en": "Ram Inthra Kor Mor 9",
        "lat": "13.8322",
        "lng": "100.6905",
        "type": "MRT"
    },
    {
        "locationId": "2000025",
        "name_th": "วงแหวนรามอินทรา",
        "name_en": "Outer Ring Road-Ram Inthra",
        "lat": "13.8247",
        "lng": "100.7012",
        "type": "MRT"
    },
    {
        "locationId": "2000026",
        "name_th": "นพรัตน์",
        "name_en": "Nopparat",
        "lat": "13.8172",
        "lng": "100.7107",
        "type": "MRT"
    },
    {
        "locationId": "2000027",
        "name_th": "บางชัน",
        "name_en": "Bang Chan",
        "lat": "13.8118",
        "lng": "100.7245",
        "type": "MRT"
    },
    {
        "locationId": "2000028",
        "name_th": "เศรษฐบุตรบำเพ็ญ",
        "name_en": "Setthabutbamphen",
        "lat": "13.8115",
        "lng": "100.7383",
        "type": "MRT"
    },
    {
        "locationId": "2000029",
        "name_th": "ตลาดมีนบุรี",
        "name_en": "Talad Min Buri",
        "lat": "13.8123",
        "lng": "100.7495",
        "type": "MRT"
    },
    {
        "locationId": "2000030",
        "name_th": "มีนบุรี",
        "name_en": "Min Buri",
        "lat": "13.8131",
        "lng": "100.7588",
        "type": "MRT"
    },
    {
        "locationId": "2000031",
        "name_th": "อิมแพ็ค เมืองทองธานี",
        "name_en": "Impact Muang Thong Thani",
        "lat": "13.9142",
        "lng": "100.5503",
        "type": "MRT"
    },
    {
        "locationId": "2000032",
        "name_th": "ทะเลสาบเมืองทองธานี",
        "name_en": "Lake Muang Thong Thani",
        "lat": "13.9231",
        "lng": "100.5408",
        "type": "MRT"
    },
    {
        "locationId": "2000033",
        "name_th": "กรุงเทพอภิวัฒน์",
        "name_en": "Krung Thep Aphiwat (Central Terminal)",
        "lat": "13.8051",
        "lng": "100.5417",
        "type": "SRT"
    },
    {
        "locationId": "2000034",
        "name_th": "จตุจักร",
        "name_en": "Chatuchak",
        "lat": "13.8205",
        "lng": "100.5512",
        "type": "SRT"
    },
    {
        "locationId": "2000035",
        "name_th": "วัดเสมียนนารี",
        "name_en": "Wat Samian Nari",
        "lat": "13.8341",
        "lng": "100.5568",
        "type": "SRT"
    },
    {
        "locationId": "2000036",
        "name_th": "บางเขน",
        "name_en": "Bang Khen",
        "lat": "13.8478",
        "lng": "100.5623",
        "type": "SRT"
    },
    {
        "locationId": "2000037",
        "name_th": "ทุ่งสองห้อง",
        "name_en": "Thung Song Hong",
        "lat": "13.8615",
        "lng": "100.5680",
        "type": "SRT"
    },
    {
        "locationId": "2000038",
        "name_th": "หลักสี่",
        "name_en": "Lak Si",
        "lat": "13.8824",
        "lng": "100.5765",
        "type": "SRT"
    },
    {
        "locationId": "2000039",
        "name_th": "การเคหะ",
        "name_en": "Kan Kheha",
        "lat": "13.9001",
        "lng": "100.5841",
        "type": "SRT"
    },
    {
        "locationId": "2000040",
        "name_th": "ดอนเมือง",
        "name_en": "Don Mueang (Airport)",
        "lat": "13.9208",
        "lng": "100.5927",
        "type": "SRT"
    },
    {
        "locationId": "2000041",
        "name_th": "หลักหก",
        "name_en": "Lak Hok (Rangsit University)",
        "lat": "13.9712",
        "lng": "100.6075",
        "type": "SRT"
    },
    {
        "locationId": "2000042",
        "name_th": "รังสิต",
        "name_en": "Rangsit",
        "lat": "13.9915",
        "lng": "100.6128",
        "type": "SRT"
    },
    {
        "locationId": "2000043",
        "name_th": "กรุงเทพอภิวัฒน์",
        "name_en": "Krung Thep Aphiwat (Central Terminal)",
        "lat": "13.8051",
        "lng": "100.5417",
        "type": "SRT"
    },
    {
        "locationId": "2000044",
        "name_th": "บางซ่อน",
        "name_en": "Bang Son",
        "lat": "13.8192",
        "lng": "100.5312",
        "type": "SRT"
    },
    {
        "locationId": "2000045",
        "name_th": "บางบำหรุ",
        "name_en": "Bang Bamru",
        "lat": "13.7915",
        "lng": "100.4785",
        "type": "SRT"
    },
    {
        "locationId": "2000046",
        "name_th": "ตลิ่งชัน",
        "name_en": "Taling Chan",
        "lat": "13.7874",
        "lng": "100.4435",
        "type": "SRT"
    },
    {
        "locationId": "2000047",
        "name_th": "พญาไท",
        "name_en": "Phaya Thai",
        "lat": "13.7569",
        "lng": "100.5350",
        "type": "ARL"
    },
    {
        "locationId": "2000048",
        "name_th": "ราชปรารภ",
        "name_en": "Ratchaprarop",
        "lat": "13.7543",
        "lng": "100.5432",
        "type": "ARL"
    },
    {
        "locationId": "2000049",
        "name_th": "มักกะสัน",
        "name_en": "Makkasan (City Air Terminal)",
        "lat": "13.7505",
        "lng": "100.5603",
        "type": "ARL"
    },
    {
        "locationId": "2000050",
        "name_th": "รามคำแหง",
        "name_en": "Ramkhamhaeng",
        "lat": "13.7431",
        "lng": "100.6001",
        "type": "ARL"
    },
    {
        "locationId": "2000051",
        "name_th": "หัวหมาก",
        "name_en": "Hua Mak",
        "lat": "13.7385",
        "lng": "100.6451",
        "type": "ARL"
    },
    {
        "locationId": "2000052",
        "name_th": "บ้านทับช้าง",
        "name_en": "Ban Thap Chang",
        "lat": "13.7335",
        "lng": "100.6908",
        "type": "ARL"
    },
    {
        "locationId": "2000053",
        "name_th": "ลาดกระบัง",
        "name_en": "Lat Krabang",
        "lat": "13.7275",
        "lng": "100.7483",
        "type": "ARL"
    },
    {
        "locationId": "2000054",
        "name_th": "สุวรรณภูมิ",
        "name_en": "Suvarnabhumi (Airport)",
        "lat": "13.6925",
        "lng": "100.7505",
        "type": "ARL"
    }
]